[{"OBJECT_NAME":"STARLINK-3837","OBJECT_ID":"2022-045AD","EPOCH":"2026-03-09T14:19:34.683744","MEAN_MOTION":15.08834164,"ECCENTRICITY":0.000129,"INCLINATION":53.2178,"RA_OF_ASC_NODE":199.5383,"ARG_OF_PERICENTER":97.351,"MEAN_ANOMALY":262.7629,"EPHEMERIS_TYPE":0,"CLASSIFICATION_TYPE":"U","NORAD_CAT_ID":52358,"ELEMENT_SET_NO":999,"REV_AT_EPOCH":21577,"BSTAR":-8.0173e-5,"MEAN_MOTION_DOT":-1.563e-5,"MEAN_MOTION_DDOT":0},{"OBJECT_NAME":"CZ-2C DEB","OBJECT_ID":"2011-030F","EPOCH":"2026-03-09T18:15:45.395712","MEAN_MOTION":15.09717889,"ECCENTRICITY":0.00353547,"INCLINATION":98.459,"RA_OF_ASC_NODE":350.9929,"ARG_OF_PERICENTER":109.3287,"MEAN_ANOMALY":305.6279,"EPHEMERIS_TYPE":0,"CLASSIFICATION_TYPE":"U","NORAD_CAT_ID":37735,"ELEMENT_SET_NO":999,"REV_AT_EPOCH":78307,"BSTAR":0.0021378399,"MEAN_MOTION_DOT":0.00035046,"MEAN_MOTION_DDOT":0}]
